{"fetched_at":"2026-03-30T06:02:59Z","count":15439,"tles":[{"name":"ONEWEB-0312","line1":"1 49098U 21075Z   26087.84644808  .00000008  00000+0 -12925-4 0  9991","line2":"2 49098  87.9178  21.8285 0001763  67.9089 292.2230 13.17649832223027","category":"Other"}]}