{
  "norad_id": 49098,
  "name": "ONEWEB-0312",
  "history": [
    {
      "epoch": "2026-03-28T20:18:53.114112Z",
      "apogee_km": 1195.045064839027,
      "perigee_km": 1192.3750801243286,
      "latitude_deg": 4.348210339548095e-05,
      "longitude_deg": -109.15384043048559,
      "height_km": 1196.1037616558403,
      "semi_major_axis_km": 7571.847072481677,
      "eccentricity": 0.00017631,
      "inclination_deg": 87.9178,
      "raan_deg": 21.8285,
      "arg_perigee_deg": 67.9089,
      "mean_anomaly_deg": 292.223,
      "mean_motion_rev_day": 13.17649832
    }
  ]
}